{
  "type": "FeatureCollection",
  "features": [
    {
      "type": "Feature",
      "properties": {
        "norad_id": 40118,
        "name": "GAOFEN-2",
        "group": "resource",
        "lat": 72.7799255210864,
        "lon": 30.310797816778326,
        "alt_km": 614.236708016575,
        "timestamp": "2025-12-24T05:51:19.262766+00:00",
        "meta_object_name": "GAOFEN-2",
        "meta_object_id": "2014-049A",
        "meta_epoch": "2025-12-23T23:01:54.604992",
        "meta_mean_motion": 14.80626085,
        "meta_eccentricity": 0.00087856,
        "meta_inclination": 98.0368,
        "meta_ra_of_asc_node": 57.1471,
        "meta_arg_of_pericenter": 81.8756,
        "meta_mean_anomaly": 278.3452,
        "meta_ephemeris_type": 0,
        "meta_classification_type": "U",
        "meta_norad_cat_id": 40118,
        "meta_element_set_no": 999,
        "meta_rev_at_epoch": 61330,
        "meta_bstar": 6.0648696e-05,
        "meta_mean_motion_dot": 4.12e-06,
        "meta_mean_motion_ddot": 0,
        "tle_line1": "1 40118U 14049A   25357.95965978  .00000412  00000+0  60649-4 0  9997",
        "tle_line2": "2 40118  98.0368  57.1471 0008785  81.8756 278.3452 14.80626085613302"
      },
      "geometry": {
        "type": "Point",
        "coordinates": [
          30.310797816778326,
          72.7799255210864
        ]
      }
    },
    {
      "type": "Feature",
      "properties": {
        "norad_id": 40143,
        "name": "YAOGAN-21",
        "group": "resource",
        "lat": 20.157482184990922,
        "lon": 38.405642462476,
        "alt_km": 488.8673059367329,
        "timestamp": "2025-12-24T05:51:19.262776+00:00",
        "meta_object_name": "YAOGAN-21",
        "meta_object_id": "2014-053A",
        "meta_epoch": "2025-12-23T23:27:44.703936",
        "meta_mean_motion": 15.23782658,
        "meta_eccentricity": 0.00086555,
        "meta_inclination": 97.1741,
        "meta_ra_of_asc_node": 40.801,
        "meta_arg_of_pericenter": 5.1486,
        "meta_mean_anomaly": 354.9839,
        "meta_ephemeris_type": 0,
        "meta_classification_type": "U",
        "meta_norad_cat_id": 40143,
        "meta_element_set_no": 999,
        "meta_rev_at_epoch": 62825,
        "meta_bstar": 0.00018913293,
        "meta_mean_motion_dot": 4.488e-05,
        "meta_mean_motion_ddot": 0,
        "tle_line1": "1 40143U 14053A   25357.97760074  .00004488  00000+0  18913-3 0  9995",
        "tle_line2": "2 40143  97.1741  40.8010 0008655   5.1486 354.9839 15.23782658628255"
      },
      "geometry": {
        "type": "Point",
        "coordinates": [
          38.405642462476,
          20.157482184990922
        ]
      }
    },
    {
      "type": "Feature",
      "properties": {
        "norad_id": 40275,
        "name": "YAOGAN-22",
        "group": "resource",
        "lat": -64.85832035740367,
        "lon": -62.03344730421666,
        "alt_km": 1204.8423162080735,
        "timestamp": "2025-12-24T05:51:19.262786+00:00",
        "meta_object_name": "YAOGAN-22",
        "meta_object_id": "2014-063A",
        "meta_epoch": "2025-12-23T15:49:35.091552",
        "meta_mean_motion": 13.15523027,
        "meta_eccentricity": 0.00060686,
        "meta_inclination": 100.7429,
        "meta_ra_of_asc_node": 141.2333,
        "meta_arg_of_pericenter": 222.1189,
        "meta_mean_anomaly": 137.9456,
        "meta_ephemeris_type": 0,
        "meta_classification_type": "U",
        "meta_norad_cat_id": 40275,
        "meta_element_set_no": 999,
        "meta_rev_at_epoch": 53673,
        "meta_bstar": 8.3956315e-05,
        "meta_mean_motion_dot": -1.5e-07,
        "meta_mean_motion_ddot": 0,
        "tle_line1": "1 40275U 14063A   25357.65943393 -.00000015  00000+0  83956-4 0  9997",
        "tle_line2": "2 40275 100.7429 141.2333 0006068 222.1189 137.9456 13.15523027536733"
      },
      "geometry": {
        "type": "Point",
        "coordinates": [
          -62.03344730421666,
          -64.85832035740367
        ]
      }
    },
    {
      "type": "Feature",
      "properties": {
        "norad_id": 40298,
        "name": "ASNARO",
        "group": "resource",
        "lat": -75.93209657593925,
        "lon": -137.16172976400057,
        "alt_km": 517.9651874167484,
        "timestamp": "2025-12-24T05:51:19.262796+00:00",
        "meta_object_name": "ASNARO",
        "meta_object_id": "2014-070A",
        "meta_epoch": "2025-12-23T22:24:10.509408",
        "meta_mean_motion": 15.19712418,
        "meta_eccentricity": 0.00058458,
        "meta_inclination": 97.3639,
        "meta_ra_of_asc_node": 73.606,
        "meta_arg_of_pericenter": 91.9154,
        "meta_mean_anomaly": 268.2751,
        "meta_ephemeris_type": 0,
        "meta_classification_type": "U",
        "meta_norad_cat_id": 40298,
        "meta_element_set_no": 999,
        "meta_rev_at_epoch": 61739,
        "meta_bstar": 0.00036429431,
        "meta_mean_motion_dot": 7.72e-05,
        "meta_mean_motion_ddot": 0,
        "tle_line1": "1 40298U 14070A   25357.93345497  .00007720  00000+0  36429-3 0  9993",
        "tle_line2": "2 40298  97.3639  73.6060 0005845  91.9154 268.2751 15.19712418617391"
      },
      "geometry": {
        "type": "Point",
        "coordinates": [
          -137.16172976400057,
          -75.93209657593925
        ]
      }
    },
    {
      "type": "Feature",
      "properties": {
        "norad_id": 40310,
        "name": "YAOGAN-24",
        "group": "resource",
        "lat": -54.71651435094531,
        "lon": -62.245860339993456,
        "alt_km": 655.492168193352,
        "timestamp": "2025-12-24T05:51:19.262806+00:00",
        "meta_object_name": "YAOGAN-24",
        "meta_object_id": "2014-072A",
        "meta_epoch": "2025-12-23T22:17:09.841632",
        "meta_mean_motion": 14.76198374,
        "meta_eccentricity": 0.0015168,
        "meta_inclination": 98.1231,
        "meta_ra_of_asc_node": 129.0821,
        "meta_arg_of_pericenter": 104.5149,
        "meta_mean_anomaly": 255.7744,
        "meta_ephemeris_type": 0,
        "meta_classification_type": "U",
        "meta_norad_cat_id": 40310,
        "meta_element_set_no": 999,
        "meta_rev_at_epoch": 59786,
        "meta_bstar": 0.00015592683,
        "meta_mean_motion_dot": 1.027e-05,
        "meta_mean_motion_ddot": 0,
        "tle_line1": "1 40310U 14072A   25357.92858613  .00001027  00000+0  15593-3 0  9991",
        "tle_line2": "2 40310  98.1231 129.0821 0015168 104.5149 255.7744 14.76198374597861"
      },
      "geometry": {
        "type": "Point",
        "coordinates": [
          -62.245860339993456,
          -54.71651435094531
        ]
      }
    },
    {
      "type": "Feature",
      "properties": {
        "norad_id": 40336,
        "name": "CBERS 4",
        "group": "resource",
        "lat": 80.73274882336857,
        "lon": -60.26002954101825,
        "alt_km": 764.5766806878855,
        "timestamp": "2025-12-24T05:51:19.262816+00:00",
        "meta_object_name": "CBERS 4",
        "meta_object_id": "2014-079A",
        "meta_epoch": "2025-12-23T22:43:39.308736",
        "meta_mean_motion": 14.35520986,
        "meta_eccentricity": 0.00018669,
        "meta_inclination": 98.3291,
        "meta_ra_of_asc_node": 55.5796,
        "meta_arg_of_pericenter": 100.6648,
        "meta_mean_anomaly": 259.4749,
        "meta_ephemeris_type": 0,
        "meta_classification_type": "U",
        "meta_norad_cat_id": 40336,
        "meta_element_set_no": 999,
        "meta_rev_at_epoch": 57881,
        "meta_bstar": -1.0739872e-05,
        "meta_mean_motion_dot": -7.3e-07,
        "meta_mean_motion_ddot": 0,
        "tle_line1": "1 40336U 14079A   25357.94698274 -.00000073  00000+0 -10740-4 0  9995",
        "tle_line2": "2 40336  98.3291  55.5796 0001866 100.6648 259.4749 14.35520986578815"
      },
      "geometry": {
        "type": "Point",
        "coordinates": [
          -60.26002954101825,
          80.73274882336857
        ]
      }
    },
    {
      "type": "Feature",
      "properties": {
        "norad_id": 40362,
        "name": "YAOGAN-26",
        "group": "resource",
        "lat": 26.619935274178836,
        "lon": -5.05388126504945,
        "alt_km": 443.528390737878,
        "timestamp": "2025-12-24T05:51:19.262826+00:00",
        "meta_object_name": "YAOGAN-26",
        "meta_object_id": "2014-088A",
        "meta_epoch": "2025-12-23T23:30:00.454752",
        "meta_mean_motion": 15.39682595,
        "meta_eccentricity": 0.00045511,
        "meta_inclination": 97.0644,
        "meta_ra_of_asc_node": 358.2541,
        "meta_arg_of_pericenter": 355.2392,
        "meta_mean_anomaly": 4.881,
        "meta_ephemeris_type": 0,
        "meta_classification_type": "U",
        "meta_norad_cat_id": 40362,
        "meta_element_set_no": 999,
        "meta_rev_at_epoch": 61067,
        "meta_bstar": 0.00050568102,
        "meta_mean_motion_dot": 0.00019921,
        "meta_mean_motion_ddot": 0,
        "tle_line1": "1 40362U 14088A   25357.97917193  .00019921  00000+0  50568-3 0  9992",
        "tle_line2": "2 40362  97.0644 358.2541 0004551 355.2392   4.8810 15.39682595610673"
      },
      "geometry": {
        "type": "Point",
        "coordinates": [
          -5.05388126504945,
          26.619935274178836
        ]
      }
    }
  ]
}